NORAD_CAT_ID,OBJECT_NAME,OBJECT_TYPE,EPOCH,MEAN_MOTION,ECCENTRICITY,INCLINATION,RA_OF_ASC_NODE,ARG_OF_PERICENTER,MEAN_ANOMALY,BSTAR,MEAN_MOTION_DOT,MEAN_MOTION_DDOT,TLE_LINE0,TLE_LINE1,TLE_LINE2,SEMIMAJOR_AXIS,PERIOD,APOGEE,PERIGEE,DECAYED
52365.0,STARLINK-3874,PAYLOAD,2024-01-29 00:33:43,15.08833778,0.0001995,53.2188,48.7761,95.1203,265.0017,6.3198e-05,7.18e-06,0.0,0 STARLINK-3874,1 52365U 22045AL  24029.02342209  .00000718  00000-0  63198-4 0  9990,2 52365  53.2188  48.7761 0001995  95.1203 265.0017 15.08833778 99578,6917.899,95.438,541.145,538.384,0.0
52365.0,STARLINK-3874,PAYLOAD,2024-01-29 08:30:39,15.0881371,0.0002049,53.2189,47.2899,92.7016,267.421,0.00047652,7.298e-05,0.0,0 STARLINK-3874,1 52365U 22045AL  24029.35462492  .00007298  00000-0  47652-3 0  9999,2 52365  53.2189  47.2899 0002049  92.7016 267.4210 15.08813710 99622,6917.961,95.439,541.243,538.408,0.0
52365.0,STARLINK-3874,PAYLOAD,2024-01-30 00:24:30,15.08837337,0.0001992,53.2191,44.3175,83.7969,276.325,0.00012219,1.657e-05,0.0,0 STARLINK-3874,1 52365U 22045AL  24030.01702181  .00001657  00000-0  12219-3 0  9990,2 52365  53.2191  44.3175 0001992  83.7969 276.3250 15.08837337 99728,6917.889,95.438,541.132,538.375,0.0
52365.0,STARLINK-3874,PAYLOAD,2024-01-30 08:21:26,15.08839925,0.0001961,53.2187,42.8303,80.8498,279.2716,0.00010347,1.359e-05,0.0,0 STARLINK-3874,1 52365U 22045AL  24030.34822178  .00001359  00000-0  10347-3 0  9994,2 52365  53.2187  42.8303 0001961  80.8498 279.2716 15.08839925 99779,6917.881,95.438,541.102,538.389,0.0
52365.0,STARLINK-3874,PAYLOAD,2024-01-31 06:36:50,15.08845593,0.0002129,53.2187,38.6678,72.8707,287.2518,0.0001044,1.374e-05,0.0,0 STARLINK-3874,1 52365U 22045AL  24031.27557910  .00001374  00000-0  10440-3 0  9997,2 52365  53.2187  38.6678 0002129  72.8707 287.2518 15.08845593 99911,6917.863,95.437,541.201,538.255,0.0
52365.0,STARLINK-3874,PAYLOAD,2024-02-01 09:38:23,15.0885013,0.0001852,53.2176,33.6123,85.8677,274.2527,-8.3208e-05,-1.613e-05,0.0,0 STARLINK-3874,1 52365U 22045AL  24032.40165766 -.00001613  00000-0 -83208-4 0  9998,2 52365  53.2176  33.6123 0001852  85.8677 274.2527 15.08850130100081,6917.849,95.437,540.996,538.433,0.0
52365.0,STARLINK-3874,PAYLOAD,2024-02-02 03:07:37,15.08841297,0.0001884,53.2177,30.3402,102.3043,257.816,2.7292e-05,1.46e-06,0.0,0 STARLINK-3874,1 52365U 22045AL  24033.13030027  .00000146  00000-0  27292-4 0  9999,2 52365  53.2177  30.3402 0001884 102.3043 257.8160 15.08841297100199,6917.876,95.437,541.045,538.438,0.0
52365.0,STARLINK-3874,PAYLOAD,2024-02-02 06:18:24,15.08842372,0.0001947,53.2184,29.746,101.135,258.9861,3.2433e-05,2.28e-06,0.0,0 STARLINK-3874,1 52365U 22045AL  24033.26277936  .00000228  00000-0  32433-4 0  9999,2 52365  53.2184  29.7460 0001947 101.1350 258.9861 15.08842372100219,6917.873,95.437,541.085,538.391,0.0
52365.0,STARLINK-3874,PAYLOAD,2024-02-03 09:19:57,15.08840627,0.000195,53.2189,24.69,106.6751,253.4455,7.9775e-05,9.82e-06,0.0,0 STARLINK-3874,1 52365U 22045AL  24034.38885946  .00000982  00000-0  79775-4 0  9996,2 52365  53.2189  24.6900 0001950 106.6751 253.4455 15.08840627100384,6917.878,95.438,541.092,538.394,0.0
52365.0,STARLINK-3874,PAYLOAD,2024-02-04 09:10:44,15.08841789,0.0001791,53.2183,20.2273,101.5992,258.5202,2.9073e-05,1.75e-06,0.0,0 STARLINK-3874,1 52365U 22045AL  24035.38246142  .00000175  00000-0  29073-4 0  9996,2 52365  53.2183  20.2273 0001791 101.5992 258.5202 15.08841789100530,6917.875,95.437,540.979,538.501,0.0
52365.0,STARLINK-3874,PAYLOAD,2024-02-05 04:15:22,15.08840491,0.0001812,53.219,16.6583,102.7896,257.3299,6.0905e-05,6.81e-06,0.0,0 STARLINK-3874,1 52365U 22045AL  24036.17734147  .00000681  00000-0  60905-4 0  9992,2 52365  53.2190  16.6583 0001812 102.7896 257.3299 15.08840491100656,6917.879,95.438,540.997,538.49,0.0
52365.0,STARLINK-3874,PAYLOAD,2024-02-05 07:26:08,15.08844152,0.0001777,53.2187,16.0634,98.2327,261.8867,9.3614e-05,1.202e-05,0.0,0 STARLINK-3874,1 52365U 22045AL  24036.30981876  .00001202  00000-0  93614-4 0  9993,2 52365  53.2187  16.0634 0001777  98.2327 261.8867 15.08844152100672,6917.868,95.437,540.962,538.503,0.0
52365.0,STARLINK-3874,PAYLOAD,2024-02-06 07:16:55,15.08843625,0.0001767,53.2191,11.6031,91.6263,268.4932,8.232e-05,1.022e-05,0.0,0 STARLINK-3874,1 52365U 22045AL  24037.30342128  .00001022  00000-0  82320-4 0  9997,2 52365  53.2191  11.6031 0001767  91.6263 268.4932 15.08843625100821,6917.869,95.437,540.957,538.512,0.0
52365.0,STARLINK-3874,PAYLOAD,2024-02-07 07:07:42,15.08852741,0.0001757,53.22,7.1394,81.5489,278.5703,7.5807e-05,9.19e-06,0.0,0 STARLINK-3874,1 52365U 22045AL  24038.29701528  .00000919  00000-0  75807-4 0  9995,2 52365  53.2200   7.1394 0001757  81.5489 278.5703 15.08852741100974,6917.841,95.437,540.922,538.491,0.0
52365.0,STARLINK-3874,PAYLOAD,2024-02-07 15:04:39,15.08835466,0.0001874,53.2189,5.6595,70.8654,289.2541,6.0749e-07,-2.78e-06,0.0,0 STARLINK-3874,1 52365U 22045AL  24038.62822986 -.00000278  00000-0  60749-6 0  9994,2 52365  53.2189   5.6595 0001874  70.8654 289.2541 15.08835466101022,6917.894,95.438,541.056,538.463,0.0
52365.0,STARLINK-3874,PAYLOAD,2024-02-07 21:26:11,15.08835733,0.0001892,53.2187,4.4708,85.534,274.5869,-2.7599e-05,-7.27e-06,0.0,0 STARLINK-3874,1 52365U 22045AL  24038.89319215 -.00000727  00000-0 -27599-4 0  9993,2 52365  53.2187   4.4708 0001892  85.5340 274.5869 15.08835733101069,6917.893,95.438,541.067,538.45,0.0
52365.0,STARLINK-3874,PAYLOAD,2024-02-08 06:58:30,15.08841777,0.0001856,53.2182,2.6861,89.7987,270.3218,-4.0001e-06,-3.52e-06,0.0,0 STARLINK-3874,1 52365U 22045AL  24039.29062782 -.00000352  00000-0 -40001-5 0  9990,2 52365  53.2182   2.6861 0001856  89.7987 270.3218 15.08841777101121,6917.875,95.437,541.024,538.456,0.0
52365.0,STARLINK-3874,PAYLOAD,2024-02-09 06:49:16,15.08855655,0.0001688,53.2194,358.222,107.0045,253.1132,5.7513e-05,6.28e-06,0.0,0 STARLINK-3874,1 52365U 22045AL  24040.28421514  .00000628  00000-0  57513-4 0  9992,2 52365  53.2194 358.2220 0001688 107.0045 253.1132 15.08855655101275,6917.833,95.437,540.865,538.53,0.0
52365.0,STARLINK-3874,PAYLOAD,2024-02-10 03:29:18,15.08837436,0.0001694,53.2194,354.3586,114.4499,245.667,3.555e-05,2.78e-06,0.0,0 STARLINK-3874,1 52365U 22045AL  24041.14535096  .00000278  00000-0  35550-4 0  9997,2 52365  53.2194 354.3586 0001694 114.4499 245.6670 15.08837436101404,6917.888,95.438,540.925,538.581,0.0
52365.0,STARLINK-3874,PAYLOAD,2024-02-10 20:58:32,15.08848624,0.0001708,53.2197,351.0911,127.0856,233.0293,-5.2844e-05,-1.129e-05,0.0,0 STARLINK-3874,1 52365U 22045AL  24041.87398990 -.00001129  00000-0 -52844-4 0  9990,2 52365  53.2197 351.0911 0001708 127.0856 233.0293 15.08848624101511,6917.854,95.437,540.901,538.537,0.0
52365.0,STARLINK-3874,PAYLOAD,2024-02-11 03:20:04,15.08855166,0.0001481,53.2196,349.9023,103.0712,257.0445,5.0791e-06,-2.07e-06,0.0,0 STARLINK-3874,1 52365U 22045AL  24042.13894494 -.00000207  00000-0  50791-5 0  9995,2 52365  53.2196 349.9023 0001481 103.0712 257.0445 15.08855166101551,6917.834,95.437,540.724,538.675,0.0
52365.0,STARLINK-3874,PAYLOAD,2024-02-11 06:30:51,15.0885086,0.0001323,53.2174,349.3026,102.9688,257.1452,0.00010323,1.356e-05,0.0,0 STARLINK-3874,1 52365U 22045AL  24042.27142585  .00001356  00000-0  10323-3 0  9997,2 52365  53.2174 349.3026 0001323 102.9688 257.1452 15.08850860101576,6917.847,95.437,540.627,538.797,0.0
52365.0,STARLINK-3874,PAYLOAD,2024-02-11 20:49:19,15.08842112,0.0001304,53.2174,346.6245,106.4113,253.7022,8.0975e-05,1.001e-05,0.0,0 STARLINK-3874,1 52365U 22045AL  24042.86759025  .00001001  00000-0  80975-4 0  9993,2 52365  53.2174 346.6245 0001304 106.4113 253.7022 15.08842112101666,6917.874,95.437,540.641,538.837,0.0
52365.0,STARLINK-3874,PAYLOAD,2024-02-12 03:10:51,15.08857872,0.0001312,53.2174,345.4369,110.5814,249.5319,0.00033453,5.043e-05,0.0,0 STARLINK-3874,1 52365U 22045AL  24043.13254132  .00005043  00000-0  33453-3 0  9991,2 52365  53.2174 345.4369 0001312 110.5814 249.5319 15.08857872101709,6917.826,95.436,540.598,538.783,0.0
52365.0,STARLINK-3874,PAYLOAD,2024-02-12 20:40:06,15.08841622,0.0001326,53.2176,342.1642,95.0555,265.0588,-3.946e-06,-3.51e-06,0.0,0 STARLINK-3874,1 52365U 22045AL  24043.86118933 -.00000351  00000-0 -39460-5 0  9994,2 52365  53.2176 342.1642 0001326  95.0555 265.0588 15.08841622101812,6917.875,95.437,540.658,538.823,0.0
52365.0,STARLINK-3874,PAYLOAD,2024-02-13 12:33:58,15.08834895,0.0001364,53.2177,339.19,89.912,270.2029,-4.3229e-05,-9.76e-06,0.0,0 STARLINK-3874,1 52365U 22045AL  24044.52359395 -.00000976  00000-0 -43229-4 0  9997,2 52365  53.2177 339.1900 0001364  89.9120 270.2029 15.08834895101911,6917.896,95.438,540.705,538.817,0.0
52365.0,STARLINK-3874,PAYLOAD,2024-02-13 18:55:31,15.08831691,0.0001303,53.2175,338.0064,93.8446,266.2695,-1.7792e-05,-5.71e-06,0.0,0 STARLINK-3874,1 52365U 22045AL  24044.78855705 -.00000571  00000-0 -17792-4 0  9998,2 52365  53.2175 338.0064 0001303  93.8446 266.2695 15.08831691101955,6917.906,95.438,540.672,538.869,0.0
52365.0,STARLINK-3874,PAYLOAD,2024-02-14 04:27:48,15.08859209,0.0001411,53.2186,336.2178,111.7989,248.3154,7.9045e-05,9.71e-06,0.0,0 STARLINK-3874,1 52365U 22045AL  24045.18598021  .00000971  00000-0  79045-4 0  9999,2 52365  53.2186 336.2178 0001411 111.7989 248.3154 15.08859209102019,6917.822,95.436,540.663,538.711,0.0
52365.0,STARLINK-3874,PAYLOAD,2024-02-14 12:24:44,15.08855097,0.0001517,53.2189,334.735,82.5059,277.6105,-9.3038e-06,-4.36e-06,0.0,0 STARLINK-3874,1 52365U 22045AL  24045.51718479 -.00000436  00000-0 -93038-5 0  9994,2 52365  53.2189 334.7350 0001517  82.5059 277.6105 15.08855097102064,6917.834,95.437,540.749,538.65,0.0
52365.0,STARLINK-3874,PAYLOAD,2024-02-14 18:46:18,15.08838279,0.0002189,53.2177,333.5469,85.1528,274.9714,0.00018338,2.631e-05,0.0,0 STARLINK-3874,1 52365U 22045AL  24045.78215608  .00002631  00000-0  18338-3 0  9994,2 52365  53.2177 333.5469 0002189  85.1528 274.9714 15.08838279102109,6917.886,95.438,541.265,538.236,0.0
